NORAD_CAT_ID,OBJECT_NAME,OBJECT_TYPE,EPOCH,MEAN_MOTION,ECCENTRICITY,INCLINATION,RA_OF_ASC_NODE,ARG_OF_PERICENTER,MEAN_ANOMALY,BSTAR,MEAN_MOTION_DOT,MEAN_MOTION_DDOT,TLE_LINE0,TLE_LINE1,TLE_LINE2,SEMIMAJOR_AXIS,PERIOD,APOGEE,PERIGEE,DECAYED
51131.0,STARLINK-3388,PAYLOAD,2024-01-31 16:26:21,15.08853864,0.0001365,53.2172,146.8265,98.3839,261.7307,-8.4542e-05,-1.634e-05,0.0,0 STARLINK-3388,1 51131U 22005AD  24031.68496985 -.00001634  00000-0 -84542-4 0  9998,2 51131  53.2172 146.8265 0001365  98.3839 261.7307 15.08853864113908,6917.838,95.437,540.647,538.759,0.0
51131.0,STARLINK-3388,PAYLOAD,2024-02-01 11:30:58,15.08852809,0.0001356,53.2171,143.2597,103.7472,256.3671,0.00017193,2.45e-05,0.0,0 STARLINK-3388,1 51131U 22005AD  24032.47983882  .00002450  00000-0  17193-3 0  9995,2 51131  53.2171 143.2597 0001356 103.7472 256.3671 15.08852809112901,6917.841,95.437,540.644,538.768,0.0
51131.0,STARLINK-3388,PAYLOAD,2024-02-02 11:21:47,15.08826281,0.000129,53.2169,138.8042,110.7213,249.3917,-0.00010867,-2.016e-05,0.0,0 STARLINK-3388,1 51131U 22005AD  24033.47346527 -.00002016  00000-0 -10867-3 0  9996,2 51131  53.2169 138.8042 0001290 110.7213 249.3917 15.08826281114172,6917.922,95.438,540.68,538.895,0.0
51131.0,STARLINK-3388,PAYLOAD,2024-02-02 14:32:33,15.08838318,0.0001874,53.2183,138.2054,66.5525,293.5664,-3.5893e-05,-8.59e-06,0.0,0 STARLINK-3388,1 51131U 22005AD  24033.60593955 -.00000859  00000-0 -35893-4 0  9990,2 51131  53.2183 138.2054 0001874  66.5525 293.5664 15.08838318113079,6917.886,95.438,541.047,538.454,0.0
51131.0,STARLINK-3388,PAYLOAD,2024-02-02 16:07:55,15.08843129,0.0001735,53.2182,137.9001,71.7511,288.367,-1.6544e-05,-5.51e-06,0.0,0 STARLINK-3388,1 51131U 22005AD  24033.67217439 -.00000551  00000-0 -16544-4 0  9998,2 51131  53.2182 137.9001 0001735  71.7511 288.3670 15.08843129114206,6917.871,95.437,540.936,538.536,0.0
51131.0,STARLINK-3388,PAYLOAD,2024-02-03 11:12:34,15.08754904,0.0002064,53.2172,134.3414,95.4536,264.6692,0.0010232,0.00015996,0.0,0 STARLINK-3388,1 51131U 22005AD  24034.46706981  .00015996  00000-0  10232-2 0  9994,2 51131  53.2172 134.3414 0002064  95.4536 264.6692 15.08754904114326,6918.141,95.443,541.433,538.578,0.0
51131.0,STARLINK-3388,PAYLOAD,2024-02-03 12:47:56,15.08828614,0.0002057,53.2169,134.0436,116.0492,244.0712,0.00010377,1.363e-05,0.0,0 STARLINK-3388,1 51131U 22005AD  24034.53329825  .00001363  00000-0  10377-3 0  9994,2 51131  53.2169 134.0436 0002057 116.0492 244.0712 15.08828614113218,6917.915,95.438,541.203,538.357,0.0
51131.0,STARLINK-3388,PAYLOAD,2024-02-03 15:58:42,15.08833933,0.0002241,53.2182,133.4462,124.2222,235.8983,0.00013333,1.834e-05,0.0,0 STARLINK-3388,1 51131U 22005AD  24034.66577410  .00001834  00000-0  13333-3 0  9991,2 51131  53.2182 133.4462 0002241 124.2222 235.8983 15.08833933114356,6917.899,95.438,541.314,538.214,0.0
51131.0,STARLINK-3388,PAYLOAD,2024-02-04 12:38:43,15.08847001,0.0001928,53.217,129.5812,126.0734,234.0437,6.3659e-05,7.25e-06,0.0,0 STARLINK-3388,1 51131U 22005AD  24035.52689176  .00000725  00000-0  63659-4 0  9995,2 51131  53.2170 129.5812 0001928 126.0734 234.0437 15.08847001113363,6917.859,95.437,541.058,538.39,0.0
51131.0,STARLINK-3388,PAYLOAD,2024-02-05 12:29:30,15.08841901,0.0001575,53.2165,125.1186,103.8257,256.291,1.7054e-05,-1.7e-07,0.0,0 STARLINK-3388,1 51131U 22005AD  24036.52049768 -.00000017  00000-0  17054-4 0  9996,2 51131  53.2165 125.1186 0001575 103.8257 256.2910 15.08841901114630,6917.875,95.437,540.829,538.65,0.0
51131.0,STARLINK-3388,PAYLOAD,2024-02-06 10:44:55,15.08842422,0.0001527,53.2171,120.9571,100.7146,259.4018,-1.8314e-05,-5.79e-06,0.0,0 STARLINK-3388,1 51131U 22005AD  24037.44785965 -.00000579  00000-0 -18314-4 0  9998,2 51131  53.2171 120.9571 0001527 100.7146 259.4018 15.08842422113652,6917.873,95.437,540.794,538.682,0.0
51131.0,STARLINK-3388,PAYLOAD,2024-02-07 12:11:05,15.08843205,0.0001539,53.2174,116.2042,98.2812,261.8355,8.3364e-05,1.039e-05,0.0,0 STARLINK-3388,1 51131U 22005AD  24038.50769838  .00001039  00000-0  83364-4 0  9994,2 51131  53.2174 116.2042 0001539  98.2812 261.8355 15.08843205114933,6917.871,95.437,540.8,538.671,0.0
51131.0,STARLINK-3388,PAYLOAD,2024-02-07 21:43:24,15.08838329,0.0001326,53.2157,114.4198,93.0183,267.0961,-9.0502e-06,-4.32e-06,0.0,0 STARLINK-3388,1 51131U 22005AD  24038.90514402 -.00000432  00000-0 -90502-5 0  9994,2 51131  53.2157 114.4198 0001326  93.0183 267.0961 15.08838329113878,6917.885,95.438,540.668,538.833,0.0
51131.0,STARLINK-3388,PAYLOAD,2024-02-08 10:26:30,15.08831328,0.0001688,53.2176,112.0445,109.6639,250.4535,3.621e-05,2.88e-06,0.0,0 STARLINK-3388,1 51131U 22005AD  24039.43507137  .00000288  00000-0  36210-4 0  9992,2 51131  53.2176 112.0445 0001688 109.6639 250.4535 15.08831328115078,6917.907,95.438,540.94,538.604,0.0
51131.0,STARLINK-3388,PAYLOAD,2024-02-09 03:55:44,15.08840318,0.0001659,53.2182,108.7708,102.2826,257.8351,2.3782e-05,9e-07,0.0,0 STARLINK-3388,1 51131U 22005AD  24040.16370909  .00000090  00000-0  23782-4 0  9990,2 51131  53.2182 108.7708 0001659 102.2826 257.8351 15.08840318115182,6917.879,95.438,540.892,538.597,0.0
51131.0,STARLINK-3388,PAYLOAD,2024-02-09 11:52:40,15.08840505,0.0001619,53.2178,107.2797,89.0816,271.0362,3.5273e-05,2.73e-06,0.0,0 STARLINK-3388,1 51131U 22005AD  24040.49491048  .00000273  00000-0  35273-4 0  9995,2 51131  53.2178 107.2797 0001619  89.0816 271.0362 15.08840505114116,6917.879,95.438,540.864,538.624,0.0
51131.0,STARLINK-3388,PAYLOAD,2024-02-10 11:43:27,15.08810745,0.0001931,53.2177,102.8194,71.2954,288.8248,0.00068044,0.00010549,0.0,0 STARLINK-3388,1 51131U 22005AD  24041.48851528  .00010549  00000-0  68044-3 0  9996,2 51131  53.2177 102.8194 0001931  71.2954 288.8248 15.08810745115382,6917.97,95.439,541.171,538.499,0.0
51131.0,STARLINK-3388,PAYLOAD,2024-02-11 03:37:18,15.08843483,0.0001536,53.2177,99.8443,85.9979,274.1189,7.4715e-05,9.01e-06,0.0,0 STARLINK-3388,1 51131U 22005AD  24042.15091037  .00000901  00000-0  74715-4 0  9996,2 51131  53.2177  99.8443 0001536  85.9979 274.1189 15.08843483115482,6917.87,95.437,540.797,538.672,0.0
51131.0,STARLINK-3388,PAYLOAD,2024-02-11 09:58:51,15.08839564,0.0001792,53.2171,98.658,74.0102,286.1088,0.00012159,1.648e-05,0.0,0 STARLINK-3388,1 51131U 22005AD  24042.41587161  .00001648  00000-0  12159-3 0  9995,2 51131  53.2171  98.6580 0001792  74.0102 286.1088 15.08839564114403,6917.882,95.438,540.986,538.507,0.0
51131.0,STARLINK-3388,PAYLOAD,2024-02-12 09:49:36,15.08861784,0.0001747,53.2175,94.1968,76.0447,284.0739,5.7279e-05,6.24e-06,0.0,0 STARLINK-3388,1 51131U 22005AD  24043.40945531  .00000624  00000-0  57279-4 0  9990,2 51131  53.2175  94.1968 0001747  76.0447 284.0739 15.08861784115671,6917.814,95.436,540.887,538.47,0.0
51131.0,STARLINK-3388,PAYLOAD,2024-02-13 03:18:52,15.08837474,0.0001669,53.2173,90.9228,102.729,257.3889,-2.8025e-05,-7.34e-06,0.0,0 STARLINK-3388,1 51131U 22005AD  24044.13810986 -.00000734  00000-0 -28025-4 0  9997,2 51131  53.2173  90.9228 0001669 102.7290 257.3889 15.08837474115788,6917.888,95.438,540.908,538.599,0.0
51131.0,STARLINK-3388,PAYLOAD,2024-02-13 09:40:25,15.08838582,0.0001471,53.2166,89.7326,96.9828,263.1332,-1.2429e-05,-4.86e-06,0.0,0 STARLINK-3388,1 51131U 22005AD  24044.40307000 -.00000486  00000-0 -12429-4 0  9990,2 51131  53.2166  89.7326 0001471  96.9828 263.1332 15.08838582114707,6917.885,95.438,540.767,538.732,0.0
51131.0,STARLINK-3388,PAYLOAD,2024-02-14 11:06:34,15.08855267,0.0001613,53.2165,84.9775,99.8565,260.261,0.00017714,2.533e-05,0.0,0 STARLINK-3388,1 51131U 22005AD  24045.46289817  .00002533  00000-0  17714-3 0  9996,2 51131  53.2165  84.9775 0001613  99.8565 260.2610 15.08855267115986,6917.834,95.437,540.815,538.583,0.0
51131.0,STARLINK-3388,PAYLOAD,2024-02-14 19:03:30,15.08846547,0.0001646,53.2166,83.4904,85.0128,275.1052,8.3129e-05,1.035e-05,0.0,0 STARLINK-3388,1 51131U 22005AD  24045.79410326  .00001035  00000-0  83129-4 0  9993,2 51131  53.2166  83.4904 0001646  85.0128 275.1052 15.08846547116036,6917.86,95.437,540.864,538.587,0.0
51131.0,STARLINK-3388,PAYLOAD,2024-02-15 07:46:36,15.0882868,0.0001603,53.217,81.1113,89.1038,271.0138,-5.7364e-05,-1.201e-05,0.0,0 STARLINK-3388,1 51131U 22005AD  24046.32403526 -.00001201  00000-0 -57364-4 0  9996,2 51131  53.2170  81.1113 0001603  89.1038 271.0138 15.08828680116113,6917.915,95.438,540.889,538.671,0.0
51131.0,STARLINK-3388,PAYLOAD,2024-02-15 18:54:18,15.08834824,0.000161,53.217,79.0315,92.808,267.3096,6.3375e-05,7.21e-06,0.0,0 STARLINK-3388,1 51131U 22005AD  24046.78771588  .00000721  00000-0  63375-4 0  9995,2 51131  53.2170  79.0315 0001610  92.8080 267.3096 15.08834824115060,6917.896,95.438,540.875,538.647,0.0
51131.0,STARLINK-3388,PAYLOAD,2024-02-16 10:48:09,15.08854657,0.0001624,53.2165,76.057,91.5681,268.5498,0.00087618,0.00013689,0.0,0 STARLINK-3388,1 51131U 22005AD  24047.45011365  .00013689  00000-0  87618-3 0  9992,2 51131  53.2165  76.0570 0001624  91.5681 268.5498 15.08854657116282,6917.836,95.437,540.824,538.577,0.0
51131.0,STARLINK-3388,PAYLOAD,2024-02-17 10:38:56,15.08851669,0.0001757,53.2168,71.5949,88.8331,271.2862,0.00060369,9.336e-05,0.0,0 STARLINK-3388,1 51131U 22005AD  24048.44371477  .00009336  00000-0  60369-3 0  9993,2 51131  53.2168  71.5949 0001757  88.8331 271.2862 15.08851669116436,6917.845,95.437,540.925,538.494,0.0
51131.0,STARLINK-3388,PAYLOAD,2024-02-17 18:35:52,15.0883629,0.0002015,53.2179,70.1064,88.9362,271.1861,0.00016218,2.294e-05,0.0,0 STARLINK-3388,1 51131U 22005AD  24048.77491696  .00002294  00000-0  16218-3 0  9995,2 51131  53.2179  70.1064 0002015  88.9362 271.1861 15.08836290116480,6917.892,95.438,541.151,538.363,0.0
51131.0,STARLINK-3388,PAYLOAD,2024-02-18 08:54:21,15.08840245,0.000167,53.2165,67.4334,92.2588,267.8595,0.00068603,0.00010647,0.0,0 STARLINK-3388,1 51131U 22005AD  24049.37107934  .00010647  00000-0  68603-3 0  9997,2 51131  53.2165  67.4334 0001670  92.2588 267.8595 15.08840245115455,6917.88,95.438,540.9,538.589,0.0
